DEORBITSAIL
1 40719U 15032E   16034.94035125  .00001225  00000-0  18857-3 0  9997
2 40719 098.0331 287.6492 0015973 311.9110 048.0735 14.75215792030694
NUDT-PHONESAT
1 40900U 15049B   16035.87184295  .00005788  00000-0  31013-3 0  9990
2 40900  97.4478  46.0816 0016161 153.0552 326.6775 15.15271611 20878
XW-2D
1 40907U 15049J   16035.89547550  .00002879  00000-0  16640-3 0  9993
2 40907  97.4518  45.8208 0016450 131.8205 344.4557 15.12971116 20849
XW-2F
1 40910U 15049M   16035.69066015  .00003785  00000-0  21632-3 0  9991
2 40910  97.4548  45.6840 0017582 131.7855 319.9460 15.13164422 20703
XW-2B
1 40911U 15049N   16035.75621535  .00002750  00000-0  15911-3 0  9997
2 40911  97.4568  45.7761 0016288 132.2087 313.4360 15.12968931 20720
DCBB
1 40912U 15049P   16035.86416933  .00003637  00000-0  19753-3 0  9997
2 40912  97.4555  46.2357 0017987 128.3726 351.4574 15.15008216 20764
TW-1C
1 40926U 15051B   16035.90042972  .00012032  00000-0  37450-3 0  9991
2 40926  97.2933  74.4160 0015980 161.5701 322.3543 15.33315402 20317
TW-1A
1 40928U 15051D   16035.89181918  .00005589  00000-0  18417-3 0  9996
2 40928  97.2872  74.1684 0014547 175.8859 309.9440 15.31764424 20305
IO-86
1 40931U 15052B   16035.12606425  .00000730  00000-0  12820-4 0  9998
2 40931   5.9966 190.8707 0013749  20.4437 339.6294 14.76415456 19087
AAUSat-5
1 40948U 98067GZ  16035.78663484  .00184474  00000-0  10427-2 0  9990
2 40948  51.6365 354.0675 0009316  97.0477 263.1584 15.77980603 19135
GomX-3
1 40949U 98067HA  16035.77221416  .00027562  00000-0  27325-3 0  9995
2 40949  51.6402 357.7729 0007728  83.6895 276.4980 15.65556040 19080
LQSat
1 40958U 15057A   16035.88326231  .00000179  00000-0  35821-4 0  9992
2 40958  98.0277 112.4600 0017390 217.7018 142.2948 14.72801496 17764
AO-85
1 40967U 15058D   16034.32512914  .00000819  00000-0  10229-3 0 00251
2 40967 064.7798 294.7298 0215297 246.6815 111.1525 14.74710953003389
ATHENOXAT-1
1 41168U 15077C   16035.69862838  .00004585  00000-0  24136-3 0  9996
2 41168  14.9858 204.9027 0013309 319.2119 148.0693 15.08908422  7550
